FENGYUN 1C DEB          
1 35192U 99025DNY 17345.38070218  .00001311  00000-0  29759-3 0  9995
2 35192  99.1625 199.4542 0231289 181.1402 178.9289 14.42872736232432
